STARLINK-37229          
1 69659U 26143L   26186.20211917 -.00911034  00000+0 -55237-2 0  9990
2 69659  97.2822 229.9975 0001182  74.6182 285.5217 15.79814699  3271
STARLINK-37556          
1 69660U 26143M   26185.00003471 -.00027572  00000+0 -14367-3 0  9998
2 69660  97.2831 228.7305 0001210  82.7097 292.3102 15.80814941  3107
STARLINK-37867          
1 69661U 26143N   26186.06491933  .00529411  00000+0  25781-2 0  9998
2 69661  97.2821 229.8781 0000513 138.0498 222.0810 15.81001748  3247
STARLINK-37852          
1 69662U 26143P   26186.16670139 -.02530086  00000+0 -18750-1 0  9998
2 69662  97.2834 229.9622 0001560  71.9264  94.2405 15.76511669  3258
STARLINK-37554          
1 69663U 26143Q   26185.55986304  .00519759  00000+0  25319-2 0  9995
2 69663  97.2831 229.3401 0002126 295.8230  64.2819 15.81023342  3173
STARLINK-37830          
1 69664U 26143R   26185.56577747  .00666286  00000+0  32010-2 0  9998
2 69664  97.2834 229.3307 0000786  39.1182 321.0144 15.80946982  3164
STARLINK-37837          
1 69665U 26143S   26185.68582871 -.00473445  00000+0 -26404-2 0  9991
2 69665  97.2838 229.4751 0000828  84.7336 275.4027 15.80544005  3181
STARLINK-37943          
1 69666U 26143T   26186.16670139 -.02649491  00000+0 -19726-1 0  9997
2 69666  97.2837 229.9756 0002001  84.1601 112.5705 15.75959651  3258
STARLINK-37941          
1 69667U 26143U   26186.19550125  .01364929  00000+0  62532-2 0  9994
2 69667  97.2837 230.0061 0006437 310.2105  49.8599 15.81179947  3263
STARLINK-37930          
1 69668U 26143V   26185.62467850  .00314018  00000+0  15687-2 0  9996
2 69668  97.2832 229.4048 0001317  97.5018 262.6400 15.80999145  3171
STARLINK-37945          
1 69669U 26143W   26186.06602632  .00471252  00000+0  23010-2 0  9998
2 69669  97.2815 229.8754 0011967 231.3512 128.6687 15.81023904  3248
STARLINK-37948          
1 69670U 26143X   26186.16670139 -.02545228  00000+0 -26645-1 0  9993
2 69670  97.2846 229.9943 0001667  80.3605 156.6382 15.67810876  3256
STARLINK-37949          
1 69671U 26143Y   26186.16670139 -.02497001  00000+0 -20293-1 0  9992
2 69671  97.2839 229.9986 0001594  89.6456 160.4095 15.74363485  3252
STARLINK-37946          
1 69672U 26143Z   26185.87105889  .00488253  00000+0  23993-2 0  9991
2 69672  97.2835 229.6828 0001593 199.1424 160.9785 15.80912173  3210
TJS-26A                 
1 69674U 26144A   26174.32980920  .00009630 -16661-6  31526-3 0  9997
2 69674  19.5157 324.7456 7314561 179.7910 181.1077  2.27958502    21
CZ-7A R/B               
1 69675U 26144B   26185.84583927  .00637001  10268-5  84610-3 0  9999
2 69675  19.4757 319.8059 7187212 188.0026 146.8095  2.47249730   300
2026-132G               
1 69676U 26132G   26178.13849605  .00008509  00000+0  61874-3 0  9998
2 69676  97.6876 241.7399 0021341 253.6187 106.2693 15.03894241  2272
STARLINK-38005          
1 69677U 26145A   26186.16670139 -.00064540  00000+0 -43679-3 0  9991
2 69677  97.2854  32.5080 0001415  54.0002 101.2029 15.75100433  2817
STARLINK-38009          
1 69678U 26145B   26186.16670139 -.00113878  00000+0 -77515-3 0  9997
2 69678  97.2857  32.5136 0001480 111.8136  53.3959 15.75119796  2827
STARLINK-37998          
1 69679U 26145C   26186.16670139  .00029512  00000+0  19857-3 0  9992
2 69679  97.2856  32.5196 0001460  82.2913  96.8201 15.75129116  2824
STARLINK-37994          
1 69680U 26145D   26186.16670139 -.00040251  00000+0 -27078-3 0  9993
2 69680  97.2856  32.5163 0001377  80.8853  90.2485 15.75145557  2823
STARLINK-37992          
1 69681U 26145E   26186.16670139 -.00089410  00000+0 -60711-3 0  9995
2 69681  97.2858  32.5171 0001671  91.2013  82.0002 15.75103093  2829
STARLINK-37997          
1 69682U 26145F   26186.16670139 -.00022649  00000+0 -15200-3 0  9990
2 69682  97.2856  32.5185 0001480 123.5527  53.6444 15.75094535  2824
STARLINK-37990          
1 69683U 26145G   26186.16670139 -.00059775  00000+0 -40440-3 0  9995
2 69683  97.2855  32.5165 0001692 117.2469  57.9617 15.75091042  2821
STARLINK-37951          
1 69684U 26145H   26186.16670139 -.00041550  00000+0 -28004-3 0  9990
2 69684  97.2856  32.5202 0002002  95.9930  85.2229 15.75106298  2829
STARLINK-37957          
1 69685U 26145J   26186.16670139 -.00046510  00000+0 -31371-3 0  9993
2 69685  97.2855  32.5229 0001428  76.8424 110.3414 15.75111674  2825
STARLINK-37968          
1 69686U 26145K   26186.16670139  .00072425  00000+0  48402-3 0  9999
2 69686  97.2864  32.5365 0001478 102.3734 118.7471 15.75108678  2826
STARLINK-37977          
1 69687U 26145L   26186.16670139  .00021569  00000+0  14547-3 0  9996
2 69687  97.2862  32.5391 0001980 152.5503  72.5850 15.75130947  2825
STARLINK-37908          
1 69688U 26145M   26186.16670139  .00041700  00000+0  28017-3 0  9993
2 69688  97.2864  32.5438 0001172 147.4047  89.7317 15.75099754  2827
STARLINK-37979          
1 69689U 26145N   26186.16670139  .00063846  00000+0  42709-3 0  9993
2 69689  97.2864  32.5443 0001442 103.9746 135.1409 15.75115875  2828
