OBJECT_NAME,OBJECT_ID,EPOCH,MEAN_MOTION,ECCENTRICITY,INCLINATION,RA_OF_ASC_NODE,ARG_OF_PERICENTER,MEAN_ANOMALY,EPHEMERIS_TYPE,CLASSIFICATION_TYPE,NORAD_CAT_ID,ELEMENT_SET_NO,REV_AT_EPOCH,BSTAR,MEAN_MOTION_DOT,MEAN_MOTION_DDOT
STARLINK-37229,2026-143L,2026-07-05T04:51:03.096288,15.79814699,.00011825,97.2822,229.9975,74.6182,285.5217,0,U,69659,999,327,-.55237263E-2,-.911034E-2,0
STARLINK-37556,2026-143M,2026-07-04T00:00:02.998944,15.80814941,.000121,97.2831,228.7305,82.7097,292.3102,0,U,69660,999,310,-.14367E-3,-.27572E-3,0
STARLINK-37867,2026-143N,2026-07-05T01:33:29.030112,15.81001748,.00005139,97.2821,229.8781,138.0498,222.0810,0,U,69661,999,324,.25781196E-2,.529411E-2,0
STARLINK-37852,2026-143P,2026-07-05T04:00:03.000096,15.76511669,.000156,97.2834,229.9622,71.9264,94.2405,0,U,69662,999,325,-.18750183E-1,-.2530086E-1,0
STARLINK-37554,2026-143Q,2026-07-04T13:26:12.166656,15.81023342,.00021268,97.2831,229.3401,295.8230,64.2819,0,U,69663,999,317,.2531915E-2,.519759E-2,0
STARLINK-37830,2026-143R,2026-07-04T13:34:43.173408,15.80946982,.00007868,97.2834,229.3307,39.1182,321.0144,0,U,69664,999,316,.32009925E-2,.666286E-2,0
STARLINK-37837,2026-143S,2026-07-04T16:27:35.600544,15.80544005,.00008281,97.2838,229.4751,84.7336,275.4027,0,U,69665,999,318,-.26403608E-2,-.473445E-2,0
STARLINK-37943,2026-143T,2026-07-05T04:00:03.000096,15.75959651,.00020016,97.2837,229.9756,84.1601,112.5705,0,U,69666,999,325,-.19725892E-1,-.2649491E-1,0
STARLINK-37941,2026-143U,2026-07-05T04:41:31.308000,15.81179947,.0006437,97.2837,230.0061,310.2105,49.8599,0,U,69667,999,326,.62531695E-2,.1364929E-1,0
STARLINK-37930,2026-143V,2026-07-04T14:59:32.222400,15.80999145,.0001317,97.2832,229.4048,97.5018,262.6400,0,U,69668,999,317,.15686669E-2,.314018E-2,0
STARLINK-37945,2026-143W,2026-07-05T01:35:04.674048,15.81023904,.0011967,97.2815,229.8754,231.3512,128.6687,0,U,69669,999,324,.23010147E-2,.471252E-2,0
STARLINK-37948,2026-143X,2026-07-05T04:00:03.000096,15.67810876,.00016678,97.2846,229.9943,80.3605,156.6382,0,U,69670,999,325,-.26644911E-1,-.2545228E-1,0
STARLINK-37949,2026-143Y,2026-07-05T04:00:03.000096,15.74363485,.00015945,97.2839,229.9986,89.6456,160.4095,0,U,69671,999,325,-.20292582E-1,-.2497001E-1,0
STARLINK-37946,2026-143Z,2026-07-04T20:54:19.488096,15.80912173,.00015931,97.2835,229.6828,199.1424,160.9785,0,U,69672,999,321,.23992659E-2,.488253E-2,0
TJS-26A,2026-144A,2026-06-23T07:54:55.514880,2.27958502,.73145613,19.5157,324.7456,179.7910,181.1077,0,U,69674,999,2,.31526459E-3,.963E-4,-.166614E-6
CZ-7A R/B,2026-144B,2026-07-04T20:18:00.512928,2.47249730,.71872124,19.4757,319.8059,188.0026,146.8095,0,U,69675,999,30,.84609749E-3,.637001E-2,.102683E-5
2026-132G,2026-132G,2026-06-27T03:19:26.058720,15.03894241,.00213411,97.6876,241.7399,253.6187,106.2693,0,U,69676,999,227,.61874088E-3,.8509E-4,0
STARLINK-38005,2026-145A,2026-07-05T04:00:03.000096,15.75100433,.00014156,97.2854,32.5080,54.0002,101.2029,0,U,69677,999,281,-.43679185E-3,-.6454E-3,0
STARLINK-38009,2026-145B,2026-07-05T04:00:03.000096,15.75119796,.00014801,97.2857,32.5136,111.8136,53.3959,0,U,69678,999,282,-.77515424E-3,-.113878E-2,0
STARLINK-37998,2026-145C,2026-07-05T04:00:03.000096,15.75129116,.00014604,97.2856,32.5196,82.2913,96.8201,0,U,69679,999,282,.19856557E-3,.29512E-3,0
STARLINK-37994,2026-145D,2026-07-05T04:00:03.000096,15.75145557,.00013771,97.2856,32.5163,80.8853,90.2485,0,U,69680,999,282,-.27077677E-3,-.40251E-3,0
STARLINK-37992,2026-145E,2026-07-05T04:00:03.000096,15.75103093,.00016713,97.2858,32.5171,91.2013,82.0002,0,U,69681,999,282,-.60710507E-3,-.8941E-3,0
STARLINK-37997,2026-145F,2026-07-05T04:00:03.000096,15.75094535,.00014808,97.2856,32.5185,123.5527,53.6444,0,U,69682,999,282,-.15200403E-3,-.22649E-3,0
STARLINK-37990,2026-145G,2026-07-05T04:00:03.000096,15.75091042,.00016923,97.2855,32.5165,117.2469,57.9617,0,U,69683,999,282,-.40440332E-3,-.59775E-3,0
STARLINK-37951,2026-145H,2026-07-05T04:00:03.000096,15.75106298,.00020027,97.2856,32.5202,95.9930,85.2229,0,U,69684,999,282,-.28003951E-3,-.4155E-3,0
STARLINK-37957,2026-145J,2026-07-05T04:00:03.000096,15.75111674,.00014289,97.2855,32.5229,76.8424,110.3414,0,U,69685,999,282,-.31371106E-3,-.4651E-3,0
STARLINK-37968,2026-145K,2026-07-05T04:00:03.000096,15.75108678,.00014784,97.2864,32.5365,102.3734,118.7471,0,U,69686,999,282,.48402246E-3,.72425E-3,0
STARLINK-37977,2026-145L,2026-07-05T04:00:03.000096,15.75130947,.00019806,97.2862,32.5391,152.5503,72.5850,0,U,69687,999,282,.14547358E-3,.21569E-3,0
STARLINK-37908,2026-145M,2026-07-05T04:00:03.000096,15.75099754,.00011722,97.2864,32.5438,147.4047,89.7317,0,U,69688,999,282,.28016897E-3,.417E-3,0
STARLINK-37979,2026-145N,2026-07-05T04:00:03.000096,15.75115875,.0001442,97.2864,32.5443,103.9746,135.1409,0,U,69689,999,282,.42708809E-3,.63846E-3,0
